NORAD_CAT_ID,OBJECT_NAME,OBJECT_TYPE,EPOCH,MEAN_MOTION,ECCENTRICITY,INCLINATION,RA_OF_ASC_NODE,ARG_OF_PERICENTER,MEAN_ANOMALY,BSTAR,MEAN_MOTION_DOT,MEAN_MOTION_DDOT,TLE_LINE0,TLE_LINE1,TLE_LINE2,SEMIMAJOR_AXIS,PERIOD,APOGEE,PERIGEE,DECAYED
49754.0,STARLINK-3193,PAYLOAD,2022-06-20 13:11:12,15.0884476,0.0009503,53.2167,116.0484,44.0427,316.1321,-2.9999e-05,-7.699999999999999e-06,0.0,0 STARLINK-3193,1 49754U 21115AG  22171.54944642 -.00000770  00000-0 -29999-4 0  9998,2 49754  53.2167 116.0484 0009503  44.0427 316.1321 15.08844760 30640,6917.866,95.437,546.305,533.1569999999998,0.0
49754.0,STARLINK-3193,PAYLOAD,2022-06-21 13:01:59,15.08843291,0.0009617,53.2178,111.588,46.4627,313.7162,-6.4049e-05,-1.312e-05,0.0,0 STARLINK-3193,1 49754U 21115AG  22172.54305078 -.00001312  00000-0 -64049-4 0  9991,2 49754  53.2178 111.5880 0009617  46.4627 313.7162 15.08843291 31900,6917.87,95.437,546.388,533.082,0.0
49754.0,STARLINK-3193,PAYLOAD,2022-06-21 19:23:32,15.08843164,0.0009712,53.2177,110.3985,47.057,313.1235,-0.00015173,-2.709e-05,0.0,0 STARLINK-3193,1 49754U 21115AG  22172.80801339 -.00002709  00000-0 -15173-3 0  9995,2 49754  53.2177 110.3985 0009712  47.0570 313.1235 15.08843164 30837,6917.871,95.437,546.4540000000002,533.0169999999998,0.0
49754.0,STARLINK-3193,PAYLOAD,2022-06-22 04:55:51,15.08829069,0.0009607999999999,53.2177,108.6141,47.6171,312.5633,-4.117e-05,-9.47e-06,0.0,0 STARLINK-3193,1 49754U 21115AG  22173.20546249 -.00000947  00000-0 -41170-4 0  9995,2 49754  53.2177 108.6141 0009608  47.6171 312.5633 15.08829069 32002,6917.9140000000025,95.438,546.4259999999998,533.132,0.0
49754.0,STARLINK-3193,PAYLOAD,2022-06-22 19:14:18,15.08856436,0.0009392,53.2168,105.9365,48.5991,311.5807,-0.0001739,-3.062e-05,0.0,0 STARLINK-3193,1 49754U 21115AG  22173.80160752 -.00003062  00000-0 -17390-3 0  9999,2 49754  53.2168 105.9365 0009392  48.5991 311.5807 15.08856436 32099,6917.83,95.437,546.192,533.198,0.0
49754.0,STARLINK-3193,PAYLOAD,2022-06-23 01:35:51,15.08843488,0.0009381,53.2168,104.7485,48.8334,311.3466,0.00012409,1.686e-05,0.0,0 STARLINK-3193,1 49754U 21115AG  22174.06656808  .00001686  00000-0  12409-3 0  9994,2 49754  53.2168 104.7485 0009381  48.8334 311.3466 15.08843488 31025,6917.87,95.437,546.224,533.245,0.0
49754.0,STARLINK-3193,PAYLOAD,2022-06-23 19:05:06,15.08834596,0.0009314,53.2168,101.4773,50.5013,309.6801,0.00010593,1.396e-05,0.0,0 STARLINK-3193,1 49754U 21115AG  22174.79521403  .00001396  00000-0  10593-3 0  9996,2 49754  53.2168 101.4773 0009314  50.5013 309.6801 15.08834596 32247,6917.897,95.438,546.205,533.319,0.0
49754.0,STARLINK-3193,PAYLOAD,2022-06-24 12:34:22,15.08810286,0.0009213,53.2173,98.2065,52.8808,307.3025,0.00021663,3.158e-05,0.0,0 STARLINK-3193,1 49754U 21115AG  22175.52386822  .00003158  00000-0  21663-3 0  9990,2 49754  53.2173  98.2065 0009213  52.8808 307.3025 15.08810286 31247,6917.971,95.439,546.21,533.4630000000002,0.0
49754.0,STARLINK-3193,PAYLOAD,2022-06-25 01:17:26,15.088425,0.0009323,53.2168,95.8275,52.5655,307.6184,-3.0869e-05,-7.83e-06,0.0,0 STARLINK-3193,1 49754U 21115AG  22176.05377647 -.00000783  00000-0 -30869-4 0  9996,2 49754  53.2168  95.8275 0009323  52.5655 307.6184 15.08842500 32431,6917.873000000001,95.437,546.187,533.288,0.0
49754.0,STARLINK-3193,PAYLOAD,2022-06-25 17:11:17,15.08845526,0.0009316,53.2171,92.8536,54.7187,305.4675,5.1448e-05,5.28e-06,0.0,0 STARLINK-3193,1 49754U 21115AG  22176.71617008  .00000528  00000-0  51448-4 0  9998,2 49754  53.2171  92.8536 0009316  54.7187 305.4675 15.08845526 31428,6917.863,95.437,546.173,533.284,0.0
49754.0,STARLINK-3193,PAYLOAD,2022-06-26 04:18:59,15.08841725,0.0009315,53.2173,90.7714,56.0826,304.1051,2.0015e-05,2.7e-07,0.0,0 STARLINK-3193,1 49754U 21115AG  22177.17985365  .00000027  00000-0  20015-4 0  9993,2 49754  53.2173  90.7714 0009315  56.0826 304.1051 15.08841725 32601,6917.875,95.437,546.184,533.2959999999998,0.0
49754.0,STARLINK-3193,PAYLOAD,2022-06-26 10:40:31,15.08838386,0.0009302,53.2175,89.5821,57.1112,303.0775,8.7192e-05,1.098e-05,0.0,0 STARLINK-3193,1 49754U 21115AG  22177.44481338  .00001098  00000-0  87192-4 0  9992,2 49754  53.2175  89.5821 0009302  57.1112 303.0775 15.08838386 31535,6917.885,95.438,546.185,533.315,0.0
49754.0,STARLINK-3193,PAYLOAD,2022-06-26 21:48:14,15.08835631,0.0009219,53.2181,87.5008,59.5354,300.6547,-1.6484e-05,-5.54e-06,0.0,0 STARLINK-3193,1 49754U 21115AG  22177.90849943 -.00000554  00000-0 -16484-4 0  9997,2 49754  53.2181  87.5008 0009219  59.5354 300.6547 15.08835631 31606,6917.894,95.438,546.136,533.381,0.0
49754.0,STARLINK-3193,PAYLOAD,2022-06-27 00:59:00,15.08836636,0.000911,53.2169,86.9076,59.3594,300.8296,-8.5542e-06,-4.28e-06,0.0,0 STARLINK-3193,1 49754U 21115AG  22178.04097867 -.00000428  00000-0 -85542-5 0  9995,2 49754  53.2169  86.9076 0009110  59.3594 300.8296 15.08836636 32738,6917.891,95.438,546.058,533.453,0.0
49754.0,STARLINK-3193,PAYLOAD,2022-06-27 21:39:01,15.08838375,0.0009106,53.2171,83.0414,61.4416,298.7492,2.5844e-05,1.2e-06,0.0,0 STARLINK-3193,1 49754U 21115AG  22178.90209599  .00000120  00000-0  25844-4 0  9992,2 49754  53.2171  83.0414 0009106  61.4416 298.7492 15.08838375 31753,6917.885,95.438,546.05,533.451,0.0
49754.0,STARLINK-3193,PAYLOAD,2022-06-28 04:00:34,15.08833236,0.0009086,53.2172,81.8518,61.5906,298.6001,-2.1226e-05,-6.3e-06,0.0,0 STARLINK-3193,1 49754U 21115AG  22179.16706159 -.00000630  00000-0 -21226-4 0  9993,2 49754  53.2172  81.8518 0009086  61.5906 298.6001 15.08833236 32901,6917.901,95.438,546.052,533.48,0.0
49754.0,STARLINK-3193,PAYLOAD,2022-06-28 10:22:07,15.0882998,0.0009101,53.2171,80.6622,62.0503,298.141,-8.9276e-05,-1.713e-05,0.0,0 STARLINK-3193,1 49754U 21115AG  22179.43202721 -.00001713  00000-0 -89276-4 0  9991,2 49754  53.2171  80.6622 0009101  62.0503 298.1410 15.08829980 31831,6917.911,95.438,546.072,533.48,0.0
49754.0,STARLINK-3193,PAYLOAD,2022-06-28 21:29:50,15.08818907,0.0009133,53.2173,78.5803,62.8905,297.3017,-7.0191e-05,-1.409e-05,0.0,0 STARLINK-3193,1 49754U 21115AG  22179.89571778 -.00001409  00000-0 -70191-4 0  9990,2 49754  53.2173  78.5803 0009133  62.8905 297.3017 15.08818907 31908,6917.945,95.439,546.128,533.492,0.0
49754.0,STARLINK-3193,PAYLOAD,2022-06-29 03:51:22,15.08822909,0.0009139,53.2175,77.3906,63.2527,296.9399,-9.3809e-05,-1.785e-05,0.0,0 STARLINK-3193,1 49754U 21115AG  22180.16067933 -.00001785  00000-0 -93809-4 0  9993,2 49754  53.2175  77.3906 0009139  63.2527 296.9399 15.08822909 31941,6917.933000000001,95.439,546.12,533.475,0.0
49754.0,STARLINK-3193,PAYLOAD,2022-06-29 21:20:37,15.08824415,0.0009147,53.2176,74.1197,64.8252,295.3688,5.2165e-06,-2.09e-06,0.0,0 STARLINK-3193,1 49754U 21115AG  22180.88932136 -.00000209  00000-0  52165-5 0  9998,2 49754  53.2176  74.1197 0009147  64.8252 295.3688 15.08824415 32051,6917.928000000001,95.439,546.121,533.465,0.0
49754.0,STARLINK-3193,PAYLOAD,2022-06-30 02:06:46,15.0882631,0.0009141,53.2176,73.2275,65.3088,294.8855,2.1542e-05,5.1e-07,0.0,0 STARLINK-3193,1 49754U 21115AG  22181.08804169  .00000051  00000-0  21542-4 0  9993,2 49754  53.2176  73.2275 0009141  65.3088 294.8855 15.08826310 33197,6917.922,95.438,546.111,533.464,0.0
49754.0,STARLINK-3193,PAYLOAD,2022-06-30 21:11:24,15.08826735,0.0009064,53.2175,69.6591,67.366,292.829,0.00011783,1.585e-05,0.0,0 STARLINK-3193,1 49754U 21115AG  22181.88292463  .00001585  00000-0  11783-3 0  9997,2 49754  53.2175  69.6591 0009064  67.3660 292.8290 15.08826735 32201,6917.920999999999,95.438,546.056,533.516,0.0
49754.0,STARLINK-3193,PAYLOAD,2022-07-01 09:54:29,15.08833813,0.0009073,53.2175,67.2804,68.8031,291.393,0.00012558,1.709e-05,0.0,0 STARLINK-3193,1 49754U 21115AG  22182.41284316  .00001709  00000-0  12558-3 0  9994,2 49754  53.2175  67.2804 0009073  68.8031 291.3930 15.08833813 33391,6917.899,95.438,546.0409999999998,533.488,0.0
49754.0,STARLINK-3193,PAYLOAD,2022-07-01 21:02:11,15.08840605,0.0009083,53.2174,65.199,69.9901,290.2068,9.295e-05,1.189e-05,0.0,0 STARLINK-3193,1 49754U 21115AG  22182.87652116  .00001189  00000-0  92950-4 0  9998,2 49754  53.2174  65.1990 0009083  69.9901 290.2068 15.08840605 32354,6917.879,95.438,546.0269999999998,533.46,0.0
49754.0,STARLINK-3193,PAYLOAD,2022-07-02 01:48:20,15.08843056,0.0009095,53.2174,64.3067,70.6459,289.5516,0.00010977,1.458e-05,0.0,0 STARLINK-3193,1 49754U 21115AG  22183.07523885  .00001458  00000-0  10977-3 0  9998,2 49754  53.2174  64.3067 0009095  70.6459 289.5516 15.08843056 33498,6917.871,95.437,546.028,533.444,0.0
49754.0,STARLINK-3193,PAYLOAD,2022-07-02 14:31:25,15.08849393,0.0009099,53.2175,61.9279,71.9545,288.2438,0.00012472,1.696e-05,0.0,0 STARLINK-3193,1 49754U 21115AG  22183.60515203  .00001696  00000-0  12472-3 0  9998,2 49754  53.2175  61.9279 0009099  71.9545 288.2438 15.08849393 32466,6917.852,95.437,546.011,533.422,0.0
49754.0,STARLINK-3193,PAYLOAD,2022-07-02 22:28:20,15.08852804,0.0009108,53.2177,60.441,73.1058,287.0932,0.00010869,1.441e-05,0.0,0 STARLINK-3193,1 49754U 21115AG  22183.93634748  .00001441  00000-0  10869-3 0  9996,2 49754  53.2177  60.4410 0009108  73.1058 287.0932 15.08852804 33629,6917.840999999999,95.437,546.007,533.405,0.0
49754.0,STARLINK-3193,PAYLOAD,2022-07-03 01:39:06,15.08849319,0.0009096,53.2178,59.8464,73.4057,286.7934,7.6462e-05,9.27e-06,0.0,0 STARLINK-3193,1 49754U 21115AG  22184.06882978  .00000927  00000-0  76462-4 0  9991,2 49754  53.2178  59.8464 0009096  73.4057 286.7934 15.08849319 32533,6917.852,95.437,546.009,533.424,0.0
49754.0,STARLINK-3193,PAYLOAD,2022-07-03 22:19:07,15.08842319,0.0008994,53.2178,55.9808,75.3948,284.8041,-5.1402e-05,-1.11e-05,0.0,0 STARLINK-3193,1 49754U 21115AG  22184.92995175 -.00001110  00000-0 -51402-4 0  9994,2 49754  53.2178  55.9808 0008994  75.3948 284.8041 15.08842319 32663,6917.873000000001,95.437,545.96,533.516,0.0
